SAUDISAT 1C (SO-50)     
1 27607U 02058C   26204.09590113  .00000878  00000+0  12088-3 0  9993
2 27607  64.5523  17.8775 0074285 255.8289 103.4556 14.83110516269785
SAUDISAT 2              
1 28371U 04025F   26204.22802914  .00000212  00000+0  58424-4 0  9995
2 28371  98.5526 205.1444 0024593 183.1701 176.9344 14.56701476170993
SAUDISAT 3              
1 31118U 07012B   26204.57163569  .00000226  00000+0  44671-4 0  9995
2 31118  98.1471 155.0001 0015933 110.0071 250.2852 14.71443851 33096
PISAT                   
1 41784U 16059B   26204.44888960  .00000887  00000+0  15817-3 0  9993
2 41784  97.8196 203.3469 0030579  89.7127 270.7583 14.69041077525060
FLYING LAPTOP           
1 42831U 17042G   26204.64452272  .00002749  00000+0  21714-3 0  9997
2 42831  97.4848 358.8157 0019123   5.7093 354.4346 15.01352269491925
SALSAT                  
1 46495U 20068K   26204.44213959  .00007378  00000+0  25456-3 0  9994
2 46495  97.8868 209.7289 0010091 164.5021 195.6529 15.30258663320903
